satname,norad_id,inclination_deg,eccentricity,mean_motion_rev_per_day,perigee_km,apogee_km,l1,l2
STARLINK-1234,45190,53.0363,0.0004605,15.75013174,341.49787603903405,347.6895110077685,1 45190U 20012N   26161.46427665  .00068570  00000+0  45200-3 0  9999,2 45190  53.0363 227.2507 0004605 283.3993  76.6512 15.75013174350445
STARLINK-1269,45197,53.1565,5.78e-05,15.35199096,459.93392543089976,460.72445212232196,1 45197U 20012V   26161.19949913  .00044368  00000+0  12835-2 0  9997,2 45197  53.1565 328.8007 0000578 137.7535 222.3512 15.35199096349092
STARLINK-1154,45198,53.0419,0.0002242,15.64004086,374.59021240101174,377.6188142955971,1 45198U 20012W   26161.59840771  .00038441  00000+0  40344-3 0  9996,2 45198  53.0419 281.2101 0002242 358.2419   1.8587 15.64004086349748
STARLINK-1199,45201,53.1567,0.0001817,15.35241147,458.9617889846304,461.4468422187201,1 45201U 20012Z   26161.62627306  .00041419  00000+0  11978-2 0  9991,2 45201  53.1567 311.0698 0001817 282.3803  77.6997 15.35241147349400
STARLINK-1209,45206,53.0378,0.0007064,15.66071391,365.39221490130876,374.92620778869696,1 45206U 20012AE  26161.55749550  .00042522  00000+0  40997-3 0  9994,2 45206  53.0378 241.5831 0007064 253.4445 106.5794 15.66071391349404
STARLINK-1231,45212,53.0373,0.000259,15.28036088,479.90705062222787,483.4604377677215,1 45212U 20012AL  26161.62323764  .00031141  00000+0  11315-2 0  9990,2 45212  53.0373 306.4766 0002590  72.5481 287.5801 15.28036088349404
STARLINK-1271,45217,53.1583,0.0001745,15.35427613,458.45746743655127,460.843855330374,1 45217U 20012AR  26161.62340244  .00039516  00000+0  11368-2 0  9999,2 45217  53.1583 311.2041 0001745 288.5182  71.5631 15.35427613349409
STARLINK-1191,45222,53.1553,0.0002171,15.3946905,446.19642694915456,449.16019595738726,1 45222U 20012AW  26161.59621287  .00044233  00000+0  11149-2 0  9999,2 45222  53.1553 284.2512 0002171 239.2028 120.8763 15.39469050349780
STARLINK-1212,45223,53.0395,9.49e-05,15.67435786,365.6025061816581,366.88258941982986,1 45223U 20012AX  26161.57303662  .00046998  00000+0  42859-3 0  9995,2 45223  53.0395 257.0874 0000949  84.1025 276.0099 15.67435786350146
STARLINK-1215,45225,53.1562,0.0002383,15.35504567,457.7928121339828,461.05159284989077,1 45225U 20012AZ  26161.62267312  .00042560  00000+0  12200-2 0  9991,2 45225  53.1562 285.4720 0002383 297.4725  62.6036 15.35504567349721
STARLINK-1221,45227,53.0632,0.0002606,15.4492199,429.83267936881657,433.3819180973178,1 45227U 20012BB  26161.37679898  .00011906  00000+0  25772-3 0  9990,2 45227  53.0632 189.3600 0002606 332.0558  28.0307 15.44921990351023
STARLINK-1222,45228,53.0533,0.0002612,15.55311502,399.4765074591496,403.0180578083973,1 45228U 20012BC  26161.52223099  .00029268  00000+0  42934-3 0  9995,2 45228  53.0533 255.8085 0002612  17.5764 342.5337 15.55311502350043
STARLINK-1226,45229,53.155,0.0003217,15.44486192,430.6971069674819,435.0793205900263,1 45229U 20012BD  26161.63531527  .00047869  00000+0  10195-2 0  9996,2 45229  53.1550 281.2755 0003217 291.8857  68.1807 15.44486192349725
STARLINK-1227,45230,53.1547,0.0003182,15.44582044,430.43925148637027,434.77360860525096,1 45230U 20012BE  26161.58026038  .00045599  00000+0  96876-3 0  9997,2 45230  53.1547 281.6418 0003182 281.2048  78.8601 15.44582044349834
STARLINK-1246,45235,53.1571,0.0001998,15.35198199,458.96552646171494,461.69817861519005,1 45235U 20012BK  26161.59650854  .00041031  00000+0  11884-2 0  9994,2 45235  53.1571 326.5681 0001998 228.7633 131.3198 15.35198199349218
STARLINK-1270,45237,53.0402,0.0003113,15.63009439,376.86617134988956,381.07314595556545,1 45237U 20012BM  26161.53166560  .00090159  00000+0  96971-3 0  9992,2 45237  53.0402 258.7709 0003113 316.2486  43.8280 15.63009439350118
STARLINK-1279,45360,53.0368,0.0006074,15.75148238,340.1262328484054,348.29253923817214,1 45360U 20019A   26160.80639801  .00082542  00000+0  53895-3 0  9993,2 45360  53.0368   5.2970 0006074 120.2547 239.9074 15.75148238345118
STARLINK-1301,45361,53.0357,3.85e-05,15.80700988,328.1989314771963,328.71533922561866,1 45361U 20019B   26161.27770931  .00105320  00000+0  53478-3 0  9993,2 45361  53.0357   5.4173 0000385  86.1047 274.0018 15.80700988345163
STARLINK-1262,45366,53.1518,0.0003777,15.3416804,460.808715284601,465.97680686611875,1 45366U 20019G   26161.11341828  .00046798  00000+0  13976-2 0  9991,2 45366  53.1518  95.2969 0003777  82.6919 277.4513 15.34168040343919
STARLINK-1273,45367,53.0437,0.0004885,15.57520202,391.52799567243073,398.1451908730578,1 45367U 20019H   26161.45057493  .00070014  00000+0  93231-3 0  9992,2 45367  53.0437  68.9650 0004885  73.4323 286.7224 15.57520202344292
STARLINK-1277,45369,53.0417,0.0004418,15.64704381,371.1059557305325,377.0722227029646,1 45369U 20019K   26161.45522995  .00045521  00000+0  46318-3 0  9997,2 45369  53.0417  62.8284 0004418  64.8378 295.3094 15.64704381344385
STARLINK-1281,45370,53.1551,0.0005044,15.35130847,457.08244617008586,463.98129532689745,1 45370U 20019L   26161.51426945  .00019869  00000+0  58382-3 0  9994,2 45370  53.1551  93.0352 0005044  78.5930 281.5639 15.35130847343986
STARLINK-1300,45374,53.1581,0.0004401,15.35643039,456.00212982962057,462.0201876389392,1 45374U 20019Q   26161.52564055  .00041110  00000+0  11736-2 0  9999,2 45374  53.1581  92.8799 0004401  96.5995 263.5509 15.35643039343980
STARLINK-1302,45375,53.0453,0.0004925,15.67604345,362.43770399327514,369.0804416249921,1 45375U 20019R   26161.44610262  .00051107  00000+0  46201-3 0  9996,2 45375  53.0453  58.8985 0004925  77.9935 282.1632 15.67604345344432
STARLINK-1304,45376,53.042,0.0004974,15.63032643,375.5418318175689,382.26373499410147,1 45376U 20019S   26161.00715669  .00055989  00000+0  60617-3 0  9995,2 45376  53.0420  62.4405 0004974  87.5163 272.6420 15.63032643344340
STARLINK-1305,45377,53.0378,0.0002094,15.71793122,352.3625754215609,355.18189901010646,1 45377U 20019T   26160.94909152  .00067790  00000+0  51313-3 0  9996,2 45377  53.0378  41.1312 0002094 220.5617 139.5244 15.71793122344641
STARLINK-1319,45379,53.0377,0.0002587,15.77852302,334.7897706542599,338.26393773241944,1 45379U 20019V   26161.60625485  .00081675  00000+0  47390-3 0  9994,2 45379  53.0377  29.4558 0002587 101.5670 258.5641 15.77852302344866
STARLINK-1266,45383,53.0451,0.0001266,15.66104553,369.20962607868296,370.9182705587964,1 45383U 20019Z   26160.95642058  .00091538  00000+0  87095-3 0  9996,2 45383  53.0451  47.6071 0001266 179.6852 180.4164 15.66104553344541
STARLINK-1267,45384,53.0441,0.0006397,15.65580555,367.2518203845848,375.88739501847886,1 45384U 20019AA  26161.37170950  .00047182  00000+0  46315-3 0  9997,2 45384  53.0441  36.7984 0006397 120.4718 239.6929 15.65580555344734
STARLINK-1272,45386,53.0408,0.0006734,15.7002333,354.29359525782,363.36694277573224,1 45386U 20019AC  26160.87619329  .00062200  00000+0  50720-3 0  9994,2 45386  53.0408  17.9395 0006734 101.8122 258.3650 15.70023330344955
STARLINK-1274,45387,53.02,0.0006981,15.62237633,376.4763010092729,385.91368033464823,1 45387U 20019AD  26160.84957986  .00093389  00000+0  10336-2 0  9996,2 45387  53.0200  17.4003 0006981 150.4986 209.6422 15.62237633344959
STARLINK-1280,45388,53.0365,5.41e-05,15.82510024,322.9825447005769,323.70764506324304,1 45388U 20019AE  26160.90648867  .00119657  00000+0  55738-3 0  9992,2 45388  53.0365  25.1674 0000541  91.6788 268.4295 15.82510024344843
STARLINK-1283,45389,53.04,0.0002702,15.7181866,351.88037740107666,355.51826174817506,1 45389U 20019AF  26160.89110566  .00067881  00000+0  51323-3 0  9998,2 45389  53.0400  16.9231 0002702 149.6591 210.4583 15.71818660344974
STARLINK-1284,45390,53.0408,0.0003943,15.7019089,355.69478132869517,361.00717574856935,1 45390U 20019AG  26160.97470000  .00058993  00000+0  47851-3 0  9996,2 45390  53.0408  40.4211 0003943  51.3295 308.8074 15.70190890344640
STARLINK-1297,45395,53.042,0.0005792,15.68579407,359.059572237019,366.8684636562075,1 45395U 20019AM  26161.56508265  .00050833  00000+0  44158-3 0  9994,2 45395  53.0420  36.5683 0005792  65.2808 294.8810 15.68579407343931
STARLINK-1307,45397,53.0528,0.0002001,15.56800937,395.5668857267183,398.27826456869207,1 45397U 20019AP  26160.93308584  .00033542  00000+0  46456-3 0  9999,2 45397  53.0528  45.7669 0002001 110.9472 249.1753 15.56800937344395
STARLINK-1255,45399,53.0357,0.0004602,15.65995953,367.27026565911183,373.48159696108996,1 45399U 20019AR  26160.89660867  .00047255  00000+0  45642-3 0  9993,2 45399  53.0357  13.6708 0004602 119.0060 241.1416 15.65995953344826
STARLINK-1260,45404,53.1549,0.0008544,15.37519567,447.6100050297882,459.2838156157477,1 45404U 20019AW  26161.29235770 -.00379912  00000+0 -10659-1 0  9994,2 45404  53.1549  56.7387 0008544 116.2000 243.9883 15.37519567344189
STARLINK-1263,45405,53.1581,0.0004157,15.35229538,457.39607589595016,463.0815015266844,1 45405U 20019AX  26161.00655574  .00049624  00000+0  14316-2 0  9999,2 45405  53.1581  59.3800 0004157 117.7316 242.4109 15.35229538344120
STARLINK-1265,45406,53.156,0.0004328,15.38454636,447.72297172884646,453.63399441099136,1 45406U 20019AY  26161.02410760  .00050702  00000+0  13181-2 0  9996,2 45406  53.1560  57.9780 0004328  86.3185 273.8315 15.38454636344145
STARLINK-1278,45408,53.04,0.0005855,15.69433953,356.57132524758435,364.4622888556414,1 45408U 20019BA  26160.95312402  .00058986  00000+0  49344-3 0  9996,2 45408  53.0400  38.5059 0005855  89.3425 270.8262 15.69433953344397
STARLINK-1296,45412,53.1557,0.0004957,15.386435,446.7348933609801,453.50442701389056,1 45412U 20019BE  26160.99853981  .00051485  00000+0  13298-2 0  9992,2 45412  53.1557  57.7866 0004957  84.8139 275.3432 15.38643500344148
STARLINK-1309,45414,53.0614,0.0005653,15.68447533,359.53091276676423,367.1528287780602,1 45414U 20019BG  26160.91089845  .00052598  00000+0  45913-3 0  9992,2 45414  53.0614  32.6750 0005653  60.3846 299.7733 15.68447533344454
